NORAD_CAT_ID,OBJECT_NAME,OBJECT_TYPE,EPOCH,MEAN_MOTION,ECCENTRICITY,INCLINATION,RA_OF_ASC_NODE,ARG_OF_PERICENTER,MEAN_ANOMALY,BSTAR,MEAN_MOTION_DOT,MEAN_MOTION_DDOT,TLE_LINE0,TLE_LINE1,TLE_LINE2,SEMIMAJOR_AXIS,PERIOD,APOGEE,PERIGEE,DECAYED
53792.0,STARLINK-4739,PAYLOAD,2023-04-26 12:54:22,15.08854228,0.0001054,53.2164,299.261,87.8826,272.2287,-0.00011632,-2.139e-05,0.0,0 STARLINK-4739,1 53792U 22111V   23116.53776095 -.00002139  00000-0 -11632-3 0  9991,2 53792  53.2164 299.2610 0001054  87.8826 272.2287 15.08854228 35457,6917.837,95.437,540.431,538.973,0.0
53792.0,STARLINK-4739,PAYLOAD,2023-04-26 20:51:17,15.08848807,0.0001899,53.2158,297.7734,78.0964,282.0241,9.5204e-05,1.228e-05,0.0,0 STARLINK-4739,1 53792U 22111V   23116.86895668  .00001228  00000-0  95204-4 0  9999,2 53792  53.2158 297.7734 0001899  78.0964 282.0241 15.08848807 35503,6917.853,95.437,541.032,538.405,0.0
53792.0,STARLINK-4739,PAYLOAD,2023-04-27 12:45:09,15.08825345,8.01e-05,53.2158,294.7994,152.336,207.7675,0.00051387,7.897e-05,0.0,0 STARLINK-4739,1 53792U 22111V   23117.53135653  .00007897  00000-0  51387-3 0  9996,2 53792  53.2158 294.7994 0000801 152.3360 207.7675 15.08825345 35604,6917.925,95.438,540.344,539.236,0.0
53792.0,STARLINK-4739,PAYLOAD,2023-04-27 20:42:04,15.08838417,7.58e-05,53.2158,293.3125,149.9081,210.1955,0.00057721,8.91e-05,0.0,0 STARLINK-4739,1 53792U 22111V   23117.86255111  .00008910  00000-0  57721-3 0  9999,2 53792  53.2158 293.3125 0000758 149.9081 210.1955 15.08838417 34857,6917.885,95.438,540.275,539.226,0.0
53792.0,STARLINK-4739,PAYLOAD,2023-04-28 04:39:00,15.08833186,6.3e-05,53.2159,291.8262,123.8023,236.3029,0.00040173,6.11e-05,0.0,0 STARLINK-4739,1 53792U 22111V   23118.19376137  .00006110  00000-0  40173-3 0  9991,2 53792  53.2159 291.8262 0000630 123.8023 236.3029 15.08833186 34905,6917.901,95.438,540.202,539.33,0.0
53792.0,STARLINK-4739,PAYLOAD,2023-04-28 11:00:33,15.0883501,0.0001014,53.2157,290.6371,102.4208,257.6897,0.00035326,5.338e-05,0.0,0 STARLINK-4739,1 53792U 22111V   23118.45872405  .00005338  00000-0  35326-3 0  9994,2 53792  53.2157 290.6371 0001014 102.4208 257.6897 15.08835010 35746,6917.896,95.438,540.462,539.059,0.0
53792.0,STARLINK-4739,PAYLOAD,2023-04-29 04:29:48,15.08845823,6.58e-05,53.2164,287.3672,118.659,241.4468,-7.4845e-05,-1.479e-05,0.0,0 STARLINK-4739,1 53792U 22111V   23119.18736172 -.00001479  00000-0 -74845-4 0  9999,2 53792  53.2164 287.3672 0000658 118.6590 241.4468 15.08845823 35857,6917.863,95.437,540.183,539.272,0.0
53792.0,STARLINK-4739,PAYLOAD,2023-04-29 20:23:38,15.08856969,4.14e-05,53.2159,284.3917,119.4058,240.6975,-4.9621e-05,-1.078e-05,0.0,0 STARLINK-4739,1 53792U 22111V   23119.84974772 -.00001078  00000-0 -49621-4 0  9991,2 53792  53.2159 284.3917 0000414 119.4058 240.6975 15.08856969 35158,6917.829,95.436,539.98,539.407,0.0
53792.0,STARLINK-4739,PAYLOAD,2023-04-30 10:42:07,15.08836902,4.86e-05,53.2158,281.716,96.9721,263.1326,4.3976e-05,4.12e-06,0.0,0 STARLINK-4739,1 53792U 22111V   23120.44591482  .00000412  00000-0  43976-4 0  9998,2 53792  53.2158 281.7160 0000486  96.9721 263.1326 15.08836902 36047,6917.89,95.438,540.091,539.419,0.0
53792.0,STARLINK-4739,PAYLOAD,2023-04-30 15:28:16,15.0883757,4.47e-05,53.216,280.824,102.656,257.4482,6.108e-05,6.85e-06,0.0,0 STARLINK-4739,1 53792U 22111V   23120.64463404  .00000685  00000-0  61080-4 0  9990,2 53792  53.2160 280.8240 0000447 102.6560 257.4482 15.08837570 35277,6917.888,95.438,540.062,539.444,0.0
53792.0,STARLINK-4739,PAYLOAD,2023-04-30 21:49:48,15.08845939,3.9e-05,53.2158,279.6334,76.2259,283.8776,8.5641e-05,1.076e-05,0.0,0 STARLINK-4739,1 53792U 22111V   23120.90958759  .00001076  00000-0  85641-4 0  9995,2 53792  53.2158 279.6334 0000390  76.2259 283.8776 15.08845939 35314,6917.862,95.437,539.997,539.457,0.0
53792.0,STARLINK-4739,PAYLOAD,2023-05-01 13:43:40,15.08837153,8.33e-05,53.2166,276.6596,139.5605,220.545,1.5532e-05,-4e-07,0.0,0 STARLINK-4739,1 53792U 22111V   23121.57199572 -.00000040  00000-0  15532-4 0  9992,2 53792  53.2166 276.6596 0000833 139.5605 220.5450 15.08837153 36216,6917.889,95.438,540.33,539.178,0.0
53792.0,STARLINK-4739,PAYLOAD,2023-05-01 15:19:03,15.0883724,7.55e-05,53.217,276.3628,137.4284,222.6767,2.1839e-05,6e-07,0.0,0 STARLINK-4739,1 53792U 22111V   23121.63823566  .00000060  00000-0  21839-4 0  9994,2 53792  53.2170 276.3628 0000755 137.4284 222.6767 15.08837240 35420,6917.889,95.438,540.276,539.232,0.0
53792.0,STARLINK-4739,PAYLOAD,2023-05-01 16:54:26,15.08840687,3.07e-05,53.216,276.0653,75.6376,284.465,-3.6089e-05,-8.62e-06,0.0,0 STARLINK-4739,1 53792U 22111V   23121.70447572 -.00000862  00000-0 -36089-4 0  9996,2 53792  53.2160 276.0653 0000307  75.6376 284.4650 15.08840687 36238,6917.878,95.438,539.956,539.531,0.0
53792.0,STARLINK-4739,PAYLOAD,2023-05-01 21:40:35,15.08845125,3.49e-05,53.2159,275.1721,99.0885,261.0147,2.2869e-05,7.7e-07,0.0,0 STARLINK-4739,1 53792U 22111V   23121.90319057  .00000077  00000-0  22869-4 0  9991,2 53792  53.2159 275.1721 0000349  99.0885 261.0147 15.08845125 35461,6917.865,95.437,539.971,539.488,0.0
53792.0,STARLINK-4739,PAYLOAD,2023-05-02 13:34:27,15.08844933,3.05e-05,53.2166,272.198,104.0287,256.0739,3.1935e-05,2.21e-06,0.0,0 STARLINK-4739,1 53792U 22111V   23122.56559070  .00000221  00000-0  31935-4 0  9990,2 53792  53.2166 272.1980 0000305 104.0287 256.0739 15.08844933 36365,6917.865,95.437,539.941,539.519,0.0
53792.0,STARLINK-4739,PAYLOAD,2023-05-02 19:55:58,15.08852169,4.42e-05,53.2163,271.0104,55.6718,304.4316,0.00012206,1.656e-05,0.0,0 STARLINK-4739,1 53792U 22111V   23122.83054272  .00001656  00000-0  12206-3 0  9996,2 53792  53.2163 271.0104 0000442  55.6718 304.4316 15.08852169 36404,6917.843,95.437,540.014,539.402,0.0
53792.0,STARLINK-4739,PAYLOAD,2023-05-03 02:17:32,15.08832044,6.4e-05,53.2173,269.8196,142.6831,217.4206,-1.7239e-06,-3.15e-06,0.0,0 STARLINK-4739,1 53792U 22111V   23123.09551785 -.00000315  00000-0 -17239-5 0  9992,2 53792  53.2173 269.8196 0000640 142.6831 217.4206 15.08832044 35640,6917.905,95.438,540.212,539.327,0.0
53792.0,STARLINK-4739,PAYLOAD,2023-05-03 13:25:14,15.08834512,3.75e-05,53.2167,267.7388,96.3664,263.737,1.5818e-05,-3.6e-07,0.0,0 STARLINK-4739,1 53792U 22111V   23123.55919904 -.00000036  00000-0  15818-4 0  9993,2 53792  53.2167 267.7388 0000375  96.3664 263.7370 15.08834512 36512,6917.897,95.438,540.022,539.503,0.0
53792.0,STARLINK-4739,PAYLOAD,2023-05-03 19:46:47,15.0883881,4.83e-05,53.2171,266.5489,68.7562,291.3481,4.6704e-05,4.56e-06,0.0,0 STARLINK-4739,1 53792U 22111V   23123.82415666  .00000456  00000-0  46704-4 0  9992,2 53792  53.2171 266.5489 0000483  68.7562 291.3481 15.08838810 36555,6917.884,95.438,540.083,539.415,0.0
53792.0,STARLINK-4739,PAYLOAD,2023-05-04 13:16:01,15.0884659,2.53e-05,53.2158,263.2781,67.1404,292.9615,1.2543e-05,-8.8e-07,0.0,0 STARLINK-4739,1 53792U 22111V   23124.55279352 -.00000088  00000-0  12543-4 0  9999,2 53792  53.2158 263.2781 0000253  67.1404 292.9615 15.08846590 35865,6917.86,95.437,539.9,539.55,0.0
53792.0,STARLINK-4739,PAYLOAD,2023-05-04 19:37:33,15.0885549,2.73e-05,53.2161,262.0888,51.6315,308.4701,0.0001026,1.346e-05,0.0,0 STARLINK-4739,1 53792U 22111V   23124.81774495  .00001346  00000-0  10260-3 0  9996,2 53792  53.2161 262.0888 0000273  51.6315 308.4701 15.08855490 35908,6917.833,95.437,539.887,539.509,0.0
53792.0,STARLINK-4739,PAYLOAD,2023-05-05 09:56:02,15.08833605,4.97e-05,53.2166,259.4131,78.6934,281.4114,4.7336e-05,4.66e-06,0.0,0 STARLINK-4739,1 53792U 22111V   23125.41391916  .00000466  00000-0  47336-4 0  9993,2 53792  53.2166 259.4131 0000497  78.6934 281.4114 15.08833605 35999,6917.9,95.438,540.109,539.421,0.0
53792.0,STARLINK-4739,PAYLOAD,2023-05-05 16:17:34,15.08842952,3.8e-05,53.2155,258.2223,64.0084,296.0948,0.00013001,1.782e-05,0.0,0 STARLINK-4739,1 53792U 22111V   23125.67887490  .00001782  00000-0  13001-3 0  9991,2 53792  53.2155 258.2223 0000380  64.0084 296.0948 15.08842952 36030,6917.871,95.437,539.999,539.473,0.0
53792.0,STARLINK-4739,PAYLOAD,2023-05-06 12:57:35,15.08840023,2.97e-05,53.2146,254.3578,74.5981,285.5044,0.00012307,1.672e-05,0.0,0 STARLINK-4739,1 53792U 22111V   23126.53999774  .00001672  00000-0  12307-3 0  9992,2 53792  53.2146 254.3578 0000297  74.5981 285.5044 15.08840023 36968,6917.88,95.438,539.951,539.54,0.0
53792.0,STARLINK-4739,PAYLOAD,2023-05-07 01:40:40,15.08846348,1.65e-05,53.2147,251.9782,87.5839,272.5172,0.00023001,3.376e-05,0.0,0 STARLINK-4739,1 53792U 22111V   23127.06991489  .00003376  00000-0  23001-3 0  9992,2 53792  53.2147 251.9782 0000165  87.5839 272.5172 15.08846348 36244,6917.861,95.437,539.84,539.612,0.0
53792.0,STARLINK-4739,PAYLOAD,2023-05-07 12:48:23,15.0883474,3.27e-05,53.2147,249.8959,99.7053,260.3976,6.2608e-05,7.09e-06,0.0,0 STARLINK-4739,1 53792U 22111V   23127.53360148  .00000709  00000-0  62608-4 0  9990,2 53792  53.2147 249.8959 0000327  99.7053 260.3976 15.08834740 36317,6917.896,95.438,539.988,539.535,0.0
53792.0,STARLINK-4739,PAYLOAD,2023-05-07 14:23:46,15.08836278,3.79e-05,53.2143,249.5985,105.65,254.4534,5.8326e-05,6.41e-06,0.0,0 STARLINK-4739,1 53792U 22111V   23127.59984100  .00000641  00000-0  58326-4 0  9993,2 53792  53.2143 249.5985 0000379 105.6500 254.4534 15.08836278 37122,6917.892,95.438,540.019,539.495,0.0
53792.0,STARLINK-4739,PAYLOAD,2023-05-08 14:14:33,15.08843958,4.4e-05,53.2143,245.1379,96.5686,263.5356,0.0001828,2.623e-05,0.0,0 STARLINK-4739,1 53792U 22111V   23128.59343961  .00002623  00000-0  18280-3 0  9994,2 53792  53.2143 245.1379 0000440  96.5686 263.5356 15.08843958 36476,6917.868,95.437,540.038,539.429,0.0
53792.0,STARLINK-4739,PAYLOAD,2023-05-09 14:05:20,15.08840792,3.42e-05,53.2142,240.6782,82.4728,277.6303,0.0001037,1.363e-05,0.0,0 STARLINK-4739,1 53792U 22111V   23129.58704213  .00001363  00000-0  10370-3 0  9997,2 53792  53.2142 240.6782 0000342  82.4728 277.6303 15.08840792 37422,6917.878,95.438,539.98,539.506,0.0
